{
  "type": "FeatureCollection",
  "features": [
    {
      "type": "Feature",
      "properties": {
        "norad_id": 30531,
        "name": "FENGYUN 1C DEB",
        "group": "fengyun-1c-debris",
        "lat": -50.57269825308539,
        "lon": 172.92766872456534,
        "alt_km": 690.6745004254744,
        "timestamp": "2025-12-02T08:59:32.991212+00:00",
        "meta_object_name": "FENGYUN 1C DEB",
        "meta_object_id": "1999-025AJV",
        "meta_epoch": "2025-12-01T18:26:26.524320",
        "meta_mean_motion": 14.61109313,
        "meta_eccentricity": 0.0029778,
        "meta_inclination": 102.3096,
        "meta_ra_of_asc_node": 156.6288,
        "meta_arg_of_pericenter": 234.6827,
        "meta_mean_anomaly": 125.1573,
        "meta_ephemeris_type": 0,
        "meta_classification_type": "U",
        "meta_norad_cat_id": 30531,
        "meta_element_set_no": 999,
        "meta_rev_at_epoch": 97535,
        "meta_bstar": 0.0046155,
        "meta_mean_motion_dot": 0.00022835,
        "meta_mean_motion_ddot": 0,
        "tle_line1": "1 30531U 99025AJV 25335.76836255  .00022835  00000+0  46155-2 0  9999",
        "tle_line2": "2 30531 102.3096 156.6288 0029778 234.6827 125.1573 14.61109313975358"
      },
      "geometry": {
        "type": "Point",
        "coordinates": [
          172.92766872456534,
          -50.57269825308539
        ]
      }
    },
    {
      "type": "Feature",
      "properties": {
        "norad_id": 30532,
        "name": "FENGYUN 1C DEB",
        "group": "fengyun-1c-debris",
        "lat": -22.353421667886433,
        "lon": 25.269749877691225,
        "alt_km": 503.8999289847088,
        "timestamp": "2025-12-02T08:59:32.991222+00:00",
        "meta_object_name": "FENGYUN 1C DEB",
        "meta_object_id": "1999-025AJW",
        "meta_epoch": "2025-12-01T03:01:30.719136",
        "meta_mean_motion": 15.17377563,
        "meta_eccentricity": 0.002936,
        "meta_inclination": 96.9638,
        "meta_ra_of_asc_node": 21.24,
        "meta_arg_of_pericenter": 295.07,
        "meta_mean_anomaly": 64.7488,
        "meta_ephemeris_type": 0,
        "meta_classification_type": "U",
        "meta_norad_cat_id": 30532,
        "meta_element_set_no": 999,
        "meta_rev_at_epoch": 97511,
        "meta_bstar": 0.010230417,
        "meta_mean_motion_dot": 0.0021221,
        "meta_mean_motion_ddot": 0,
        "tle_line1": "1 30532U 99025AJW 25335.12604999  .00212210  00000+0  10230-1 0  9990",
        "tle_line2": "2 30532  96.9638  21.2400 0029360 295.0700  64.7488 15.17377563975113"
      },
      "geometry": {
        "type": "Point",
        "coordinates": [
          25.269749877691225,
          -22.353421667886433
        ]
      }
    },
    {
      "type": "Feature",
      "properties": {
        "norad_id": 30533,
        "name": "FENGYUN 1C DEB",
        "group": "fengyun-1c-debris",
        "lat": -44.29987511396553,
        "lon": -84.10328764047375,
        "alt_km": 679.0196053340114,
        "timestamp": "2025-12-02T08:59:32.991272+00:00",
        "meta_object_name": "FENGYUN 1C DEB",
        "meta_object_id": "1999-025AJX",
        "meta_epoch": "2025-12-01T07:18:59.051232",
        "meta_mean_motion": 14.53198163,
        "meta_eccentricity": 0.0084363,
        "meta_inclination": 98.8336,
        "meta_ra_of_asc_node": 103.4985,
        "meta_arg_of_pericenter": 183.3496,
        "meta_mean_anomaly": 207.1407,
        "meta_ephemeris_type": 0,
        "meta_classification_type": "U",
        "meta_norad_cat_id": 30533,
        "meta_element_set_no": 999,
        "meta_rev_at_epoch": 97655,
        "meta_bstar": 0.005024,
        "meta_mean_motion_dot": 0.00021832,
        "meta_mean_motion_ddot": 0,
        "tle_line1": "1 30533U 99025AJX 25335.30485013  .00021832  00000+0  50240-2 0  9999",
        "tle_line2": "2 30533  98.8336 103.4985 0084363 183.3496 207.1407 14.53198163976555"
      },
      "geometry": {
        "type": "Point",
        "coordinates": [
          -84.10328764047375,
          -44.29987511396553
        ]
      }
    },
    {
      "type": "Feature",
      "properties": {
        "norad_id": 30539,
        "name": "FENGYUN 1C DEB",
        "group": "fengyun-1c-debris",
        "lat": -59.89778975241676,
        "lon": 120.538757889451,
        "alt_km": 681.8976292430843,
        "timestamp": "2025-12-02T08:59:32.991286+00:00",
        "meta_object_name": "FENGYUN 1C DEB",
        "meta_object_id": "1999-025AKD",
        "meta_epoch": "2025-12-01T20:19:37.284384",
        "meta_mean_motion": 14.55283673,
        "meta_eccentricity": 0.0116107,
        "meta_inclination": 98.8782,
        "meta_ra_of_asc_node": 315.62,
        "meta_arg_of_pericenter": 309.1379,
        "meta_mean_anomaly": 49.9541,
        "meta_ephemeris_type": 0,
        "meta_classification_type": "U",
        "meta_norad_cat_id": 30539,
        "meta_element_set_no": 999,
        "meta_rev_at_epoch": 99207,
        "meta_bstar": 0.00093568,
        "meta_mean_motion_dot": 4.382e-05,
        "meta_mean_motion_ddot": 0,
        "tle_line1": "1 30539U 99025AKD 25335.84695931  .00004382  00000+0  93568-3 0  9998",
        "tle_line2": "2 30539  98.8782 315.6200 0116107 309.1379  49.9541 14.55283673992072"
      },
      "geometry": {
        "type": "Point",
        "coordinates": [
          120.538757889451,
          -59.89778975241676
        ]
      }
    },
    {
      "type": "Feature",
      "properties": {
        "norad_id": 30540,
        "name": "FENGYUN 1C DEB",
        "group": "fengyun-1c-debris",
        "lat": -53.18777695584141,
        "lon": -107.58213242953671,
        "alt_km": 820.926270824154,
        "timestamp": "2025-12-02T08:59:32.991297+00:00",
        "meta_object_name": "FENGYUN 1C DEB",
        "meta_object_id": "1999-025AKE",
        "meta_epoch": "2025-12-01T13:32:46.644864",
        "meta_mean_motion": 14.32079338,
        "meta_eccentricity": 0.00526696,
        "meta_inclination": 98.8787,
        "meta_ra_of_asc_node": 83.6444,
        "meta_arg_of_pericenter": 95.4787,
        "meta_mean_anomaly": 283.2708,
        "meta_ephemeris_type": 0,
        "meta_classification_type": "U",
        "meta_norad_cat_id": 30540,
        "meta_element_set_no": 999,
        "meta_rev_at_epoch": 97126,
        "meta_bstar": 0.0021456673,
        "meta_mean_motion_dot": 5.814e-05,
        "meta_mean_motion_ddot": 0,
        "tle_line1": "1 30540U 99025AKE 25335.56442876  .00005814  00000+0  21457-2 0  9995",
        "tle_line2": "2 30540  98.8787  83.6444 0052669  95.4787 283.2708 14.32079338971263"
      },
      "geometry": {
        "type": "Point",
        "coordinates": [
          -107.58213242953671,
          -53.18777695584141
        ]
      }
    },
    {
      "type": "Feature",
      "properties": {
        "norad_id": 30541,
        "name": "FENGYUN 1C DEB",
        "group": "fengyun-1c-debris",
        "lat": -67.24357585575797,
        "lon": -178.35150479740005,
        "alt_km": 832.0122225970199,
        "timestamp": "2025-12-02T08:59:32.991307+00:00",
        "meta_object_name": "FENGYUN 1C DEB",
        "meta_object_id": "1999-025AKF",
        "meta_epoch": "2025-12-01T13:15:53.483904",
        "meta_mean_motion": 14.2296194,
        "meta_eccentricity": 0.00188587,
        "meta_inclination": 98.6962,
        "meta_ra_of_asc_node": 22.2366,
        "meta_arg_of_pericenter": 116.9856,
        "meta_mean_anomaly": 243.3251,
        "meta_ephemeris_type": 0,
        "meta_classification_type": "U",
        "meta_norad_cat_id": 30541,
        "meta_element_set_no": 999,
        "meta_rev_at_epoch": 97168,
        "meta_bstar": 0.0011900685,
        "meta_mean_motion_dot": 2.64e-05,
        "meta_mean_motion_ddot": 0,
        "tle_line1": "1 30541U 99025AKF 25335.55270236  .00002640  00000+0  11901-2 0  9991",
        "tle_line2": "2 30541  98.6962  22.2366 0018858 116.9856 243.3251 14.22961940971681"
      },
      "geometry": {
        "type": "Point",
        "coordinates": [
          -178.35150479740005,
          -67.24357585575797
        ]
      }
    },
    {
      "type": "Feature",
      "properties": {
        "norad_id": 30542,
        "name": "FENGYUN 1C DEB",
        "group": "fengyun-1c-debris",
        "lat": -6.541661884063697,
        "lon": 6.43138863925629,
        "alt_km": 853.5323580820132,
        "timestamp": "2025-12-02T08:59:32.991317+00:00",
        "meta_object_name": "FENGYUN 1C DEB",
        "meta_object_id": "1999-025AKG",
        "meta_epoch": "2025-12-01T20:12:51.435072",
        "meta_mean_motion": 14.06962863,
        "meta_eccentricity": 0.0027976,
        "meta_inclination": 98.7881,
        "meta_ra_of_asc_node": 4.8976,
        "meta_arg_of_pericenter": 5.2793,
        "meta_mean_anomaly": 173.0027,
        "meta_ephemeris_type": 0,
        "meta_classification_type": "U",
        "meta_norad_cat_id": 30542,
        "meta_element_set_no": 999,
        "meta_rev_at_epoch": 96765,
        "meta_bstar": 0.00025211,
        "meta_mean_motion_dot": 3.79e-06,
        "meta_mean_motion_ddot": 0,
        "tle_line1": "1 30542U 99025AKG 25335.84226198  .00000379  00000+0  25211-3 0  9999",
        "tle_line2": "2 30542  98.7881   4.8976 0027976   5.2793 173.0027 14.06962863967656"
      },
      "geometry": {
        "type": "Point",
        "coordinates": [
          6.43138863925629,
          -6.541661884063697
        ]
      }
    }
  ]
}